ZHONGXING-6E            
1 58253U 23172A   25300.52087243 -.00000350  00000+0  00000+0 0  9996
2 58253   0.0137 246.0294 0003017  65.4364  27.7138  1.00269871  7326
YAOGAN-41               
1 58582U 23197A   25300.57370898 -.00000354  00000+0  00000+0 0  9998
2 58582   3.5747 310.1131 0012817 202.3043 213.5142  1.00272328  6996
OVZON-3                 
1 58698U 24003A   25300.12816980  .00000062  00000+0  00000+0 0  9996
2 58698   0.0108 218.3637 0000180 245.3450  37.9031  1.00273324  5100
INSAT-3DS               
1 58990U 24033A   25300.49489169 -.00000145  00000+0  00000+0 0  9992
2 58990   0.0823  82.6501 0001391 124.1959  89.5435  1.00272487 44736
MERAH PUTIH 2           
1 58995U 24035A   25300.51778243 -.00000347  00000+0  00000+0 0  9990
2 58995   0.0174 253.6092 0001527 318.7603 123.1478  1.00271444  6252
TJS-11                  
1 59020U 24037A   25300.77058242 -.00000361  00000+0  00000+0 0  9996
2 59020   4.5269 324.4415 0004573 294.3261 175.2950  1.00272667  6256
HULIANWAN GAOGUI-01 (H*)
1 59069U 24040A   25300.26573725  .00000167  00000+0  00000+0 0  9998
2 59069   0.0461 309.0623 0001695 342.2779 233.8864  1.00273381  4991
EUTELSAT 36D            
1 59346U 24059A   25300.48021294  .00000167  00000+0  00000+0 0  9999
2 59346   0.0181 239.1215 0000276 187.1011 178.6154  1.00272222  5810
PAKSAT-MM1              
1 59915U 24104A   25300.48073294  .00000165  00000+0  00000+0 0  9997
2 59915   0.0109 231.7578 0001765 344.4922  31.0871  1.00272245  5199
ASTRA 1P (SES-24)       
1 60086U 24115A   25300.34628336  .00000131  00000+0  00000+0 0  9991
2 60086   0.0662 332.7160 0004266 283.3400 283.7916  1.00270615  4862
GOES 19                 
1 60133U 24119A   25300.51669435 -.00000238  00000+0  00000+0 0  9991
2 60133   0.0017  75.8698 0000784 206.0970 225.0163  1.00276463  4630
ZHONGXING-3A            
1 60179U 24122A   25300.68636095 -.00000303  00000+0  00000+0 0  9992
2 60179   0.0336  55.1530 0001182 170.2677 159.5852  1.00269415  4971
TURKSAT 6A              
1 60233U 24127A   25300.48142630  .00000157  00000+0  00000+0 0  9999
2 60233   0.0350 174.2741 0005090  45.0933  32.0445  1.00273375  4682
HULIANWAN GAOGUI-02 (H*)
1 60327U 24135A   25300.60322521 -.00000162  00000+0  00000+0 0  9992
2 60327   0.0351  73.0661 0002710 197.4419 136.0358  1.00271065  5167
ZHONGXING-4A            
1 60606U 24151A   25297.78504381 -.00000351  00000+0  00000+0 0  9990
2 60606   1.9270 273.4445 0000580 336.5313 184.3280  1.00271020  4390
HULIANWAN GAOGUI-03 (H*)
1 61503U 24181A   25300.26363942 -.00000229  00000+0  00000+0 0  9998
2 61503   0.0058 222.3855 0000522 173.4757  17.8086  1.00267859  4484
DSN-3 (KIRAMEKI-3)      
1 61733U 24198A   25300.54072333 -.00000238  00000+0  00000+0 0  9993
2 61733   0.0315  80.1256 0001203 107.3591 187.4138  1.00273343  3586
KOREASAT 6A             
1 61910U 24206A   25300.52087242 -.00000351  00000+0  00000+0 0  9999
2 61910   0.0255 131.1171 0000923  59.7938 148.7769  1.00272094  3506
OPTUS-X (ADS-01)        
1 62006U 24212A   25300.28662402 -.00000222  00000+0  00000+0 0  9990
2 62006   0.0537  75.3674 0001064 211.8804 350.9660  1.00567276  3420
GSAT-N2 (GSAT-20)       
1 62028U 24214A   25300.48662632 -.00000009  00000+0  00000+0 0  9996
2 62028   0.0881  88.1152 0002537 244.5001 306.6789  1.00272654  3565
SXM-9                   
1 62259U 24234A   25300.38399557 -.00000194  00000+0  00000+0 0  9991
2 62259   0.0208 294.0966 0003722  23.1308 131.8896  1.00271407  3240
TJS-12                  
1 62374U 24246A   25300.33601442 -.00000220  00000+0  00000+0 0  9996
2 62374   1.2257 287.3994 0001282 224.5467 151.5511  1.00271508  3237
SHIJIAN-25 (SJ-25)      
1 62485U 25002A   25300.71792160 -.00000333  00000+0  00000+0 0  9995
2 62485   4.5898  62.5843 0055766 167.8219 192.7926  1.00275288  3026
TJS-14                  
1 62804U 25017A   25297.76528370  .00000127  00000+0  00000+0 0  9996
2 62804   1.3513 286.6836 0003340 351.8449  48.7962  1.00269896  2917
QZS-6 (MICHIBIKI-6)     
1 62876U 25023A   25300.06290948 -.00000222  00000+0  00000+0 0  9994
2 62876   0.0529  27.7362 0001394 192.7277 288.4054  1.00269519  2620
ZHONGXING-10R           
1 63075U 25036A   25297.35547064 -.00000340  00000+0  00000+0 0  9992
2 63075   0.0626 256.7375 0004777 295.3883  79.4056  1.00271216  2581
TJS-15                  
1 63157U 25045A   25300.77069251 -.00000254  00000+0  00000+0 0  9995
2 63157   0.0603  66.5520 0003704 236.3610 105.3197  1.00273700  2426
TIANLIAN 2-04           
1 63361U 25062A   25300.49489170 -.00000130  00000+0  00000+0 0  9999
2 63361   4.9775 277.6353 0034122 358.0832  18.5989  1.00271886  2271
TJS-16                  
1 63397U 25064A   25300.71045169 -.00000094  00000+0  00000+0 0  9990
2 63397   0.4940  80.9759 0002846 218.9828 152.7275  1.00271378  2069
TJS-17                  
1 63524U 25073A   25300.73086833 -.00000058  00000+0  00000+0 0  9997
2 63524   0.4585  83.4719 0002572 180.0365 200.5071  1.00271124  1964
TIANLIAN 2-05           
1 63662U 25084A   25300.29836279  .00000130  00000+0  00000+0 0  9990
2 63662   5.0466 282.4201 0000904  10.0764 231.2575  1.00272682  2045
TJS-19                  
1 63924U 25097A   25300.76514376 -.00000269  00000+0  00000+0 0  9992
2 63924   3.7001 314.1925 0002984 274.4608 224.4096  1.00270016  1810
CHINASAT 3B             
1 64062U 25106A   25300.78767963 -.00000034  00000+0  00000+0 0  9991
2 64062   0.0321  27.5416 0008160 197.6696 262.0907  1.00272399  1730
SXM-10                  
1 64290U 25122A   25300.25820514 -.00000006  00000+0  00000+0 0  9995
2 64290   0.0333  29.4939 0002574 333.6172   9.5746  1.00271874  1340
CHINASAT 9C             
1 64470U 25132A   25300.71137933 -.00000237  00000+0  00000+0 0  9999
2 64470   0.0085 226.4035 0005436  18.1206 140.1219  1.00273212  1810
MTG-S1                  
1 64723U 25143A   25300.00858493 -.00000020  00000+0  00000+0 0  9995
2 64723   0.8025 312.3928 0001789 291.6487 151.2929  1.00273308  1081
DROR 1                  
1 64784U 25148A   25300.30531096 -.00000023  00000+0  00000+0 0  9990
2 64784   0.0319  59.1727 0000786 239.0998 203.5833  1.00270707   969
SHIYAN-29               
1 65486U 25196A   25300.76906274 -.00000260  00000+0  00000+0 0  9990
2 65486  28.5667  21.4645 0010589 177.3804 209.4422  1.00270451   553
